[Satellite]
VERSION=1.1
NAME=MOLNIYA 1-80
NICKNAME=MOLNIYA 1-80
TLE1=1 21118U 91012A   20157.08455793  .00000217  00000-0  00000-0 0  9992
TLE2=2 21118  64.3664  57.8162 6865113 286.1356  12.8711  2.05234948215762
STATUS=0
